[{"OBJECT_NAME":"IRIDIUM 180","OBJECT_ID":"2019-002A","EPOCH":"2026-03-09T22:12:10.971936","MEAN_MOTION":14.34217842,"ECCENTRICITY":0.00022889,"INCLINATION":86.3973,"RA_OF_ASC_NODE":35.0663,"ARG_OF_PERICENTER":84.9653,"MEAN_ANOMALY":275.1804,"EPHEMERIS_TYPE":0,"CLASSIFICATION_TYPE":"U","NORAD_CAT_ID":43922,"ELEMENT_SET_NO":999,"REV_AT_EPOCH":37476,"BSTAR":6.536861e-6,"MEAN_MOTION_DOT":3.8e-7,"MEAN_MOTION_DDOT":0},{"OBJECT_NAME":"COSMOS 540","OBJECT_ID":"1972-104A","EPOCH":"2026-03-09T22:18:09.881856","MEAN_MOTION":14.37475414,"ECCENTRICITY":0.00187968,"INCLINATION":74.0789,"RA_OF_ASC_NODE":281.8264,"ARG_OF_PERICENTER":272.7333,"MEAN_ANOMALY":87.1669,"EPHEMERIS_TYPE":0,"CLASSIFICATION_TYPE":"U","NORAD_CAT_ID":6323,"ELEMENT_SET_NO":999,"REV_AT_EPOCH":78475,"BSTAR":5.5602782e-5,"MEAN_MOTION_DOT":1.41e-6,"MEAN_MOTION_DDOT":0}]
